OBJECT_NAME,OBJECT_ID,EPOCH,MEAN_MOTION,ECCENTRICITY,INCLINATION,RA_OF_ASC_NODE,ARG_OF_PERICENTER,MEAN_ANOMALY,EPHEMERIS_TYPE,CLASSIFICATION_TYPE,NORAD_CAT_ID,ELEMENT_SET_NO,REV_AT_EPOCH,BSTAR,MEAN_MOTION_DOT,MEAN_MOTION_DDOT
BADR-4,2006-051A,2026-06-04T17:50:03.090912,1.00450212,.00078927,1.9707,81.2738,161.5231,306.4291,0,U,29526,999,5114,0,.167E-5,0
NAVSTAR 59 (USA 192),2006-052A,2026-06-05T10:51:10.316736,2.00557585,.0085351,54.9360,214.4715,90.7498,270.3097,0,U,29601,999,14317,0,.37E-6,0
WILDBLUE-1,2006-054A,2026-06-05T14:41:55.603104,1.00272715,.0001679,2.7727,80.6281,351.4725,291.2147,0,U,29643,999,5367,0,-.37E-6,0
THEMIS A,2007-004A,2026-06-04T23:46:31.573344,0.87843998,.8370544,8.2168,110.7843,196.7880,87.6844,0,U,30580,999,4117,-.22139E-1,-.24E-5,0
THEMIS D,2007-004D,2026-06-01T05:42:18.597600,0.87589139,.83349559,7.5391,81.1709,228.5222,291.6035,0,U,30797,999,4093,0,-.298E-5,0
THEMIS E,2007-004E,2026-06-05T09:27:04.656960,0.88041996,.8442656,6.2293,98.8695,213.2934,313.5488,0,U,30798,999,6581,0,-.193E-5,0
ANIK F3,2007-009A,2026-06-05T14:39:48.307392,1.00270979,.0002812,1.1669,83.9882,350.5245,280.7544,0,U,31102,999,4644,0,.12E-6,0
SAUDISAT 3,2007-012B,2026-06-05T10:13:50.958336,14.71418542,.0013251,98.1451,106.8196,264.7052,95.2643,0,U,31118,999,2601,.60586E-4,.324E-5,0
SAUDICOMSAT 7,2007-012C,2026-06-05T17:09:54.855936,14.66098882,.0054618,98.3772,130.6125,231.6357,127.9932,0,U,31119,999,2075,.1095E-3,.56E-5,0
SAUDICOMSAT 6,2007-012E,2026-06-05T17:36:25.560288,14.62543462,.0071888,98.4092,124.0376,3.5786,356.5914,0,U,31121,999,1851,.15917E-3,.784E-5,0
SAUDICOMSAT 5,2007-012H,2026-06-05T16:54:40.711104,14.68142711,.0047794,98.3484,131.3515,160.2308,200.0762,0,U,31124,999,2191,.11755E-3,.634E-5,0
SAUDICOMSAT 3,2007-012J,2026-06-05T09:54:42.876864,14.70685866,.0040507,98.3138,131.6035,89.2367,271.3479,0,U,31125,999,2309,.16492E-3,.963E-5,0
GALAXY 17 (G-17),2007-016B,2026-06-05T13:06:47.782368,1.00272836,.0004948,2.9422,80.0469,12.2302,273.4062,0,U,31307,999,6968,0,-.194E-5,0
YAOGAN-2,2007-019A,2026-06-05T11:32:22.358112,14.82658323,.0019553,98.2658,16.6892,314.4674,45.4938,0,U,31490,999,2588,.1144E-3,.866E-5,0
GLOBALSTAR M069,2007-020C,2026-06-05T15:52:04.204128,12.23470970,.000255,52.0040,284.7490,124.6168,249.2922,0,U,31573,999,87739,.41039E-3,-.48E-6,0
GLOBALSTAR M072,2007-020D,2026-06-05T16:03:58.161024,11.91658402,.0001366,51.9904,130.9082,299.5825,231.8572,0,U,31574,999,87360,-.65163E-4,-.89E-6,0
TERRASAR-X,2007-026A,2026-06-04T16:14:31.233696,15.19148915,.00016197,97.4453,163.5606,90.1175,270.0246,0,U,31698,999,5132,.4517233E-4,.882E-5,0
INTELSAT 11 (IS-11),2007-044B,2026-06-05T16:03:55.706400,0.99053683,.0001716,3.5350,78.8086,76.7099,155.9709,0,U,32253,999,6833,0,-.166E-5,0
WGS F1 (USA 195),2007-046A,2026-06-05T11:36:11.426112,1.00271527,.0000598,0.0485,93.9114,326.4041,325.1689,0,U,32258,999,5221,0,-.255E-5,0
